OBJECT_NAME,OBJECT_ID,EPOCH,MEAN_MOTION,ECCENTRICITY,INCLINATION,RA_OF_ASC_NODE,ARG_OF_PERICENTER,MEAN_ANOMALY,EPHEMERIS_TYPE,CLASSIFICATION_TYPE,NORAD_CAT_ID,ELEMENT_SET_NO,REV_AT_EPOCH,BSTAR,MEAN_MOTION_DOT,MEAN_MOTION_DDOT
TIANQI-6,2020-076D,2026-07-06T16:16:57.254880,15.07320242,.001054,34.9996,288.8314,337.9700,22.0556,0,U,46810,999,31152,.20167E-3,.3084E-4,0
KSM1-C,2020-081B,2026-07-06T18:39:11.104704,15.27088111,.0002367,36.8963,297.9730,1.8777,358.1981,0,U,46906,999,31216,.25841E-3,.6936E-4,0
KSM1-D,2020-081C,2026-07-06T19:19:27.689376,15.25025345,.0002817,36.8981,307.1904,44.7094,315.3881,0,U,46907,999,31209,.28369E-3,.716E-4,0
KSM1-A,2020-081H,2026-07-06T17:24:14.377824,15.26290984,.0001943,36.8973,300.8361,117.2737,242.8210,0,U,46912,999,31216,.32896E-3,.8646E-4,0
R2,2020-081J,2026-07-06T08:39:36.304704,15.25733870,.00068702,36.8978,303.1680,85.0008,275.1525,0,U,46913,999,31491,.31211581E-3,.8064E-4,0
KSM1-B,2020-081K,2026-07-06T16:19:48.872928,15.24808735,.0004121,36.9032,308.6118,76.5381,283.5827,0,U,46914,999,31516,.29251E-3,.7338E-4,0
GONETS-M 20,2020-091A,2026-07-06T19:23:52.551168,12.42894191,.0021963,82.5054,290.2401,136.3265,223.9557,0,U,47227,999,25351,-.13327E-3,-.8E-7,0
GONETS-M 21,2020-091B,2026-07-06T20:42:17.559936,12.42887584,.0015612,82.4977,288.9013,149.0083,211.1921,0,U,47228,999,25351,.46478E-3,.74E-6,0
GONETS-M 22,2020-091C,2026-07-06T20:03:25.972992,12.42893480,.0022871,82.5035,289.8259,131.8344,228.4693,0,U,47229,999,25346,.14519E-3,.3E-6,0
CUBEL,2021-006AM,2026-07-06T02:47:24.690336,15.41884521,.0008022,97.2313,237.5276,107.7894,252.4229,0,U,47448,999,30267,.26988E-3,.11391E-3,0
ARKTIKA-M 1,2021-016A,2026-07-06T10:21:59.496768,2.00615404,.7294925,63.2546,54.8487,270.0174,14.5556,0,U,47719,999,3917,0,-.238E-5,0
STARLINK-2342,2021-021Z,2026-07-06T20:00:01.999008,15.89083306,.0006167,53.1519,49.0663,252.0288,349.9224,0,U,47883,999,603,.7975E-3,.239543E-2,0
GRUS-1B,2021-022C,2026-07-06T20:55:26.906016,14.98762329,.0014628,97.5339,70.4153,250.4669,109.4975,0,U,47934,999,28884,.14227E-3,.1659E-4,0
2021-022F,2021-022F,2026-07-06T21:28:46.377408,15.33379751,.0010432,97.3867,88.5765,33.4615,326.7285,0,U,47937,999,29273,.20908E-3,.6676E-4,0
UNISAT-7,2021-022P,2026-07-06T17:00:02.934720,15.41031948,.0009052,97.3865,92.8409,18.4699,341.6874,0,U,47945,999,29286,.29387E-3,.12065E-3,0
2021-022X,2021-022X,2026-07-06T00:59:56.705856,15.79191923,.00028683,97.3877,105.3257,83.0198,277.1395,0,U,47953,999,29347,.79848792E-3,.14437E-2,0
GLOBAL-9,2021-023G,2026-07-06T08:49:08.825664,15.47338011,.0002625,44.9802,142.6639,95.8826,264.2364,0,U,47971,999,29791,.34917E-3,.17918E-3,0
AII-BRAVO,2021-034C,2026-07-06T15:41:35.689056,15.03623426,.0005634,97.5590,242.1222,185.1587,174.9581,0,U,48270,999,28254,.23171E-3,.311E-4,0
TYVAK-182A,2021-034D,2026-07-06T17:28:44.073696,15.06350744,.0004527,97.5701,246.3072,258.1207,101.9513,0,U,48271,999,28277,.2496E-3,.3611E-4,0
CSS (TIANHE),2021-035A,2026-07-06T11:56:11.415840,15.58009548,.0002947,41.4676,204.5488,273.1350,86.9151,0,U,48274,999,29618,.1548E-3,.11627E-3,0
TYVAK-0130,2021-041BF,2026-07-06T12:58:34.910976,15.27855213,.0008579,52.9949,296.1908,227.4206,132.6069,0,U,48606,999,28334,.19648E-3,.507E-4,0
HAIYANG-2D,2021-043A,2026-07-06T19:29:25.490976,13.83372836,.0011551,65.9980,255.8414,266.7330,93.2417,0,U,48621,999,25926,.12907E-4,-.67E-6,0
2021-050D,2021-050D,2026-07-06T15:31:10.964352,15.23540814,.00055467,97.3326,263.2412,178.6749,181.4504,0,U,48843,999,28192,.29358082E-3,.6949E-4,0
TYVAK-0173,2021-059P,2026-07-06T04:07:13.120896,14.81953172,.000801,96.0077,258.8094,336.3355,23.7493,0,U,48892,999,27105,.23085E-3,.1798E-4,0
MANDRAKE 2 ABLE,2021-059AE,2026-07-06T00:35:14.544096,15.55786490,.0003507,97.7035,18.2551,279.0977,80.9880,0,U,48907,999,28005,.34723E-3,.23892E-3,0
MANDRAKE 2 BAKER,2021-059AF,2026-07-06T02:12:29.879136,15.60598515,.0002198,97.7000,21.3340,267.2089,92.8916,0,U,48908,999,28024,.37921E-3,.31291E-3,0
PACE-1,2021-059AG,2026-07-06T01:44:06.923904,15.83608652,.0002866,97.6734,27.3937,201.5313,158.5836,0,U,48909,999,28078,.57119E-3,.126204E-2,0
YAM-3,2021-059AN,2026-07-06T18:33:19.957824,15.49009629,.000374,97.6998,16.0140,286.3013,73.7826,0,U,48915,999,28002,.187E-3,.10023E-3,0
FARADAY_PHOENIX,2021-059AX,2026-07-06T12:25:17.514048,15.84465874,.00052,97.6782,27.7798,223.2509,136.8353,0,U,48924,999,28071,.65231E-3,.150606E-2,0
DEMO8 (TENZING),2021-059CA,2026-07-06T13:00:37.800288,15.55772934,.0005331,97.7020,22.4446,270.9475,89.1168,0,U,48951,999,28031,.25218E-3,.17304E-3,0
FENGYUN 3E,2021-062A,2026-07-06T20:41:13.324992,14.19904870,.0002551,98.7499,191.0506,53.7487,306.3925,0,U,49008,999,25937,-.64436E-4,-.181E-5,0
ISS (NAUKA),2021-066A,2026-07-06T11:25:32.035872,15.48920216,.0006688,51.6304,204.6205,262.9565,97.0662,0,U,49044,999,60976,.11937E-3,.6115E-4,0
STARLINK-3100,2021-082Q,2026-07-06T17:37:38.214048,14.98329507,.0003032,70.0001,354.2919,268.7888,91.2924,0,U,49144,999,26381,-.24655E-4,-.387E-5,0
CUTE,2021-088D,2026-07-06T05:34:15.742560,16.03910366,.00021518,97.4066,288.4907,248.0418,112.0633,0,U,49263,999,26559,.74939321E-3,.475427E-2,.10580002E-3
2021-091B,2021-091B,2026-07-06T19:51:47.080800,15.18655823,.0012684,97.4481,15.1038,339.7452,20.3278,0,U,49316,999,26196,.12627E-3,.2552E-4,0
SDGSAT 1,2021-100A,2026-07-06T20:37:06.761856,15.19211251,.0008949,97.2618,234.0570,192.3056,167.7962,0,U,49387,999,25890,.12046E-3,.2472E-4,0
TEIKYOSAT-4 (OORURI),2021-102B,2026-07-06T16:12:36.020160,15.09580518,.0010894,97.3663,216.4012,219.1430,140.9012,0,U,49396,999,25566,.1102E-3,.1711E-4,0
Z-SAT,2021-102E,2026-07-06T20:05:45.852000,15.18419443,.0016776,97.3313,222.5644,172.8496,187.2981,0,U,49399,999,25642,.18915E-3,.3839E-4,0
HIBARI,2021-102F,2026-07-06T16:00:49.718304,15.32149897,.0013126,97.3226,233.3519,127.6462,232.5973,0,U,49400,999,25717,.30604E-3,.9449E-4,0
KOSEN-1,2021-102H,2026-07-06T16:04:52.257792,15.27128535,.001505,97.3175,229.4502,134.5634,225.6837,0,U,49402,999,25699,.25694E-3,.6785E-4,0
GLOBAL-14,2021-106A,2026-07-06T09:41:10.836096,15.51510131,.0016051,42.0028,176.7996,163.3863,196.7510,0,U,49469,999,26111,.32709E-3,.19682E-3,0
GAOFEN-3 02,2021-109A,2026-07-06T21:23:00.769632,14.42219077,.0001582,98.4091,195.7076,313.2098,46.8959,0,U,49495,999,24315,-.21082E-4,-.113E-5,0
GLOBAL-12,2021-115BA,2026-07-06T14:56:15.709920,15.54904434,.0002594,53.1958,311.0075,70.4909,289.6383,0,U,49772,999,25892,.46955E-3,.3158E-3,0
GLOBAL-13,2021-115BB,2026-07-06T15:18:21.014208,15.46866345,.0001615,53.1983,322.0742,148.9913,211.1191,0,U,49773,999,25877,.37084E-3,.18549E-3,0
GLOBAL-17,2021-120A,2026-07-06T18:29:38.448096,15.53378471,.0014114,41.9949,292.5122,26.6424,333.5143,0,U,49949,999,25794,.36235E-3,.23365E-3,0
GLOBAL-16,2021-120B,2026-07-06T17:55:05.335392,15.51181862,.0012394,41.9955,296.7612,15.6283,344.4942,0,U,49950,999,25788,.36857E-3,.21917E-3,0
XW-3 (CAS-9),2021-131B,2026-07-06T20:08:05.771616,14.41378117,.0005042,98.4982,280.1230,51.2523,308.9116,0,U,50466,999,23794,.26825E-3,.825E-5,0
ION SCV-004,2022-002K,2026-07-06T17:13:10.596000,15.30651358,.0005558,97.2819,245.0103,286.7165,73.3466,0,U,50993,999,24828,.1463E-3,.426E-4,0
ETV-A1,2022-002CE,2026-07-06T19:41:37.335264,15.41110072,.0003411,97.2864,254.0735,268.0109,92.0747,0,U,51060,999,24886,.22176E-3,.9095E-4,0
BRO-5,2022-002CF,2026-07-06T20:07:42.303648,15.48527207,.0004506,97.2983,261.6954,235.5901,124.4924,0,U,51061,999,24929,.47373E-3,.25175E-3,0
LUDI TANCE 1-01A (L-SAR 01A),2022-007A,2026-07-06T21:05:13.515360,14.88412590,.0001625,97.8101,195.0186,90.7430,269.3973,0,U,51284,999,24140,.63936E-4,.538E-5,0
LUDI TANCE 1-01B (L-SAR 01B),2022-018A,2026-07-06T10:35:56.438880,14.88422741,.00016072,97.8106,194.5856,91.5780,268.5621,0,U,51822,999,23657,.6822939E-4,.578E-5,0
2022-019D,2022-019D,2026-07-06T20:22:02.115840,15.74488750,.0001762,97.3648,281.4539,84.0020,276.1446,0,U,51827,999,24279,.58243E-3,.85004E-3,0
2022-019J,2022-019J,2026-07-06T21:12:56.714400,15.20528459,.00095,97.3416,250.1858,150.4997,209.6776,0,U,51832,999,24079,.73827E-4,.1548E-4,0
2022-023F,2022-023F,2026-07-06T20:12:58.238208,15.17876643,.0132338,63.4441,206.6634,341.6997,17.9376,0,U,51951,999,24069,.23638E-3,.5796E-4,0
CZ-4C R/B,2022-027B,2026-07-06T20:41:43.996992,13.65481581,.0234224,63.3943,6.5431,22.5865,338.5279,0,U,52085,999,21472,.56314E-4,-.4E-6,0
MERIDIAN 10,2022-030A,2026-07-06T09:50:44.452608,2.00610921,.6789155,62.6808,138.7125,272.8469,17.6299,0,U,52145,999,3141,0,.207E-5,0
OMNI-L1,2022-033A,2026-07-06T05:00:40.377888,14.82824042,.00045629,97.8386,266.0171,207.2294,152.8681,0,U,52157,999,23027,.28316574E-3,.2239E-4,0
ENMAP,2022-033C,2026-07-06T20:07:56.997696,14.74936032,.0001381,97.9787,269.8097,75.9209,284.2154,0,U,52159,999,22955,.24442E-4,.114E-5,0
ARCSAT-1,2022-033E,2026-07-06T12:13:54.439968,15.54105676,.0006267,97.2747,280.0761,120.8961,239.2910,0,U,52161,999,23870,.17043E-3,.1097E-3,0
GLOBAL-18,2022-034B,2026-07-06T07:37:46.564320,15.46957993,.00041711,52.9804,165.1624,359.3997,0.7003,0,U,52196,999,23992,.38445635E-3,.19316E-3,0
GAOFEN-3 03,2022-035A,2026-07-06T20:43:38.841600,14.42216995,.0001672,98.4065,196.1583,95.3413,264.7967,0,U,52200,999,22368,-.29124E-4,-.139E-5,0
DAQI-1,2022-039A,2026-07-06T20:17:59.538336,14.57689491,.0003304,98.1484,126.2916,172.0450,188.0802,0,U,52257,999,22480,.5401E-4,.201E-5,0
BRO-6,2022-047AE,2026-07-06T19:30:06.135264,15.52062905,.0003305,97.3389,279.2632,356.0270,4.0956,0,U,52422,999,23419,.58488E-3,.35278E-3,0
JILIN-1 GAOFEN 3D27,2022-048B,2026-07-06T19:34:58.111104,15.80813205,.0004275,97.5725,303.6086,266.6502,93.4276,0,U,52444,999,23257,.72301E-3,.140657E-2,0
JILIN-1 GAOFEN 3D28,2022-048C,2026-07-06T20:01:10.511616,15.85108669,.0003866,97.5655,303.8747,255.2121,104.8721,0,U,52445,999,23263,.77615E-3,.185434E-2,0
VIGORIDE-3,2022-057AE,2026-07-06T08:19:11.599392,15.27488433,.00094823,97.6631,327.8334,62.4890,297.7311,0,U,52760,999,22808,.21644179E-3,.5749E-4,0
